HULIANWANG DIGUI-146    
1 67522U 26013A   26047.50660525 -.00000032  00000+0  11837-3 0  9990
2 67522  50.0080  73.2377 0001236 334.4561  25.6268 13.71823317  3923
HULIANWANG DIGUI-147    
1 67523U 26013B   26048.01405116 -.00000041  00000+0  10789-3 0  9996
2 67523  50.0051  71.2411 0001745  38.6205 321.4810 13.72092333  3996
HULIANWANG DIGUI-148    
1 67524U 26013C   26047.57166842 -.00000022  00000+0  12835-3 0  9990
2 67524  50.0090  72.9185 0000232 355.4694   4.6195 13.72180444  3939
HULIANWANG DIGUI-149    
1 67525U 26013D   26047.56696041 -.00000032  00000+0  11759-3 0  9994
2 67525  50.0085  72.8908 0000852  98.4045 261.6943 13.72336276  3930
HULIANWANG DIGUI-150    
1 67526U 26013E   26047.55896043 -.00000023  00000+0  12625-3 0  9991
2 67526  50.0046  72.8315 0000498  64.4392 295.6550 13.72667463  3952
HULIANWANG DIGUI-151    
1 67527U 26013F   26047.62279793 -.00000006  00000+0  14354-3 0  9999
2 67527  50.0091  72.5243 0000498 137.3593 222.7337 13.73319862  3944
HULIANWANG DIGUI-152    
1 67528U 26013G   26047.55661359 -.00000011  00000+0  13844-3 0  9994
2 67528  50.0039  72.8164 0001958 115.1030 245.0064 13.72913823  3934
HULIANWANG DIGUI-153    
1 67529U 26013H   26047.62046315 -.00000110  00000+0  32449-4 0  9995
2 67529  50.0042  72.4878 0000799 213.7313 146.3528 13.73260423  3938
HULIANWANG DIGUI-154    
1 67530U 26013J   26047.61738154  .00000037  00000+0  18996-3 0  9992
2 67530  50.0067  72.4818 0001155 205.9301 154.1533 13.73365686  3938
CZ-12 R/B               
1 67531U 26013K   26044.30903653 -.00000106  00000+0  24917-4 0  9993
2 67531  49.9940  81.6091 0069052 213.8608 145.7882 14.14458025  3534
STARLINK-36587          
1 67532U 26014A   26048.79932249  .00235082  00000+0  11897-2 0  9998
2 67532  97.2845 292.7736 0001574 106.9948 253.1493 15.80918681  5447
STARLINK-36417          
1 67533U 26014B   26048.65184671  .00174639  00000+0  11449-2 0  9995
2 67533  97.2831 292.5124 0002536 100.7649 259.3902 15.75249810  5416
